[{"OBJECT_NAME":"GONETS-M 24","OBJECT_ID":"2022-139B","EPOCH":"2026-03-09T23:35:50.362656","MEAN_MOTION":12.42886943,"ECCENTRICITY":0.0017902,"INCLINATION":82.4959,"RA_OF_ASC_NODE":49.0613,"ARG_OF_PERICENTER":87.9145,"MEAN_ANOMALY":272.3984,"EPHEMERIS_TYPE":0,"CLASSIFICATION_TYPE":"U","NORAD_CAT_ID":54151,"ELEMENT_SET_NO":999,"REV_AT_EPOCH":15332,"BSTAR":0.00011438626,"MEAN_MOTION_DOT":2.6e-7,"MEAN_MOTION_DDOT":0},{"OBJECT_NAME":"COSMOS 1510","OBJECT_ID":"1983-115A","EPOCH":"2026-03-09T12:33:40.702464","MEAN_MOTION":12.41201178,"ECCENTRICITY":0.00267426,"INCLINATION":73.6143,"RA_OF_ASC_NODE":84.3742,"ARG_OF_PERICENTER":114.8987,"MEAN_ANOMALY":2.3656,"EPHEMERIS_TYPE":0,"CLASSIFICATION_TYPE":"U","NORAD_CAT_ID":14521,"ELEMENT_SET_NO":999,"REV_AT_EPOCH":91667,"BSTAR":-7.5910202e-5,"MEAN_MOTION_DOT":-2.7e-7,"MEAN_MOTION_DDOT":0}]
